{
  "type": "FeatureCollection",
  "features": [
    {
      "type": "Feature",
      "properties": {
        "norad_id": 40010,
        "name": "KAZEOSAT 2",
        "group": "resource",
        "lat": -44.15591055022396,
        "lon": -149.97167146963884,
        "alt_km": 625.0048868639824,
        "timestamp": "2025-12-24T22:42:21.679208+00:00",
        "meta_object_name": "KAZEOSAT 2",
        "meta_object_id": "2014-033A",
        "meta_epoch": "2025-12-24T06:44:14.835264",
        "meta_mean_motion": 14.85188172,
        "meta_eccentricity": 0.00086351,
        "meta_inclination": 97.5495,
        "meta_ra_of_asc_node": 201.9991,
        "meta_arg_of_pericenter": 166.4728,
        "meta_mean_anomaly": 193.6721,
        "meta_ephemeris_type": 0,
        "meta_classification_type": "U",
        "meta_norad_cat_id": 40010,
        "meta_element_set_no": 999,
        "meta_rev_at_epoch": 62299,
        "meta_bstar": 0.00014562973,
        "meta_mean_motion_dot": 1.198e-05,
        "meta_mean_motion_ddot": 0,
        "tle_line1": "1 40010U 14033A   25358.28072726  .00001198  00000+0  14563-3 0  9993",
        "tle_line2": "2 40010  97.5495 201.9991 0008635 166.4728 193.6721 14.85188172622995"
      },
      "geometry": {
        "type": "Point",
        "coordinates": [
          -149.97167146963884,
          -44.15591055022396
        ]
      }
    },
    {
      "type": "Feature",
      "properties": {
        "norad_id": 40011,
        "name": "HODOYOSHI-4",
        "group": "resource",
        "lat": 34.44989323602104,
        "lon": 12.441667010025073,
        "alt_km": 587.2285956598153,
        "timestamp": "2025-12-24T22:42:21.679219+00:00",
        "meta_object_name": "HODOYOSHI-4",
        "meta_object_id": "2014-033B",
        "meta_epoch": "2025-12-24T07:31:33.981600",
        "meta_mean_motion": 14.87520882,
        "meta_eccentricity": 0.00240364,
        "meta_inclination": 97.541,
        "meta_ra_of_asc_node": 186.6267,
        "meta_arg_of_pericenter": 161.7621,
        "meta_mean_anomaly": 198.4463,
        "meta_ephemeris_type": 0,
        "meta_classification_type": "U",
        "meta_norad_cat_id": 40011,
        "meta_element_set_no": 999,
        "meta_rev_at_epoch": 62280,
        "meta_bstar": 0.00015473133,
        "meta_mean_motion_dot": 1.359e-05,
        "meta_mean_motion_ddot": 0,
        "tle_line1": "1 40011U 14033B   25358.31358775  .00001359  00000+0  15473-3 0  9999",
        "tle_line2": "2 40011  97.5410 186.6267 0024036 161.7621 198.4463 14.87520882622807"
      },
      "geometry": {
        "type": "Point",
        "coordinates": [
          12.441667010025073,
          34.44989323602104
        ]
      }
    },
    {
      "type": "Feature",
      "properties": {
        "norad_id": 40013,
        "name": "DEIMOS-2",
        "group": "resource",
        "lat": -3.713421046969303,
        "lon": 53.84681552961086,
        "alt_km": 591.9051172486734,
        "timestamp": "2025-12-24T22:42:21.679229+00:00",
        "meta_object_name": "DEIMOS-2",
        "meta_object_id": "2014-033D",
        "meta_epoch": "2025-12-24T05:48:05.353632",
        "meta_mean_motion": 14.93018756,
        "meta_eccentricity": 0.00014046,
        "meta_inclination": 97.6055,
        "meta_ra_of_asc_node": 233.6628,
        "meta_arg_of_pericenter": 104.0371,
        "meta_mean_anomaly": 256.1005,
        "meta_ephemeris_type": 0,
        "meta_classification_type": "U",
        "meta_norad_cat_id": 40013,
        "meta_element_set_no": 999,
        "meta_rev_at_epoch": 61161,
        "meta_bstar": 0.00012798894,
        "meta_mean_motion_dot": 1.277e-05,
        "meta_mean_motion_ddot": 0,
        "tle_line1": "1 40013U 14033D   25358.24172863  .00001277  00000+0  12799-3 0  9992",
        "tle_line2": "2 40013  97.6055 233.6628 0001404 104.0371 256.1005 14.93018756611615"
      },
      "geometry": {
        "type": "Point",
        "coordinates": [
          53.84681552961086,
          -3.713421046969303
        ]
      }
    },
    {
      "type": "Feature",
      "properties": {
        "norad_id": 40015,
        "name": "HODOYOSHI-3",
        "group": "resource",
        "lat": -45.98071851043549,
        "lon": 172.21464000334615,
        "alt_km": 627.4498584251023,
        "timestamp": "2025-12-24T22:42:21.679240+00:00",
        "meta_object_name": "HODOYOSHI-3",
        "meta_object_id": "2014-033F",
        "meta_epoch": "2025-12-24T06:44:33.590112",
        "meta_mean_motion": 14.84844764,
        "meta_eccentricity": 0.00324679,
        "meta_inclination": 97.6206,
        "meta_ra_of_asc_node": 163.6147,
        "meta_arg_of_pericenter": 208.7127,
        "meta_mean_anomaly": 151.2303,
        "meta_ephemeris_type": 0,
        "meta_classification_type": "U",
        "meta_norad_cat_id": 40015,
        "meta_element_set_no": 999,
        "meta_rev_at_epoch": 62166,
        "meta_bstar": 0.00019636656,
        "meta_mean_motion_dot": 1.631e-05,
        "meta_mean_motion_ddot": 0,
        "tle_line1": "1 40015U 14033F   25358.28094433  .00001631  00000+0  19637-3 0  9996",
        "tle_line2": "2 40015  97.6206 163.6147 0032467 208.7127 151.2303 14.84844764621665"
      },
      "geometry": {
        "type": "Point",
        "coordinates": [
          172.21464000334615,
          -45.98071851043549
        ]
      }
    },
    {
      "type": "Feature",
      "properties": {
        "norad_id": 40053,
        "name": "SPOT 7",
        "group": "resource",
        "lat": 58.526610339099804,
        "lon": 47.30587686809126,
        "alt_km": 684.0909171228195,
        "timestamp": "2025-12-24T22:42:21.679250+00:00",
        "meta_object_name": "SPOT 7",
        "meta_object_id": "2014-034A",
        "meta_epoch": "2025-12-24T07:38:20.369184",
        "meta_mean_motion": 14.60748124,
        "meta_eccentricity": 0.00015365,
        "meta_inclination": 98.0889,
        "meta_ra_of_asc_node": 60.1264,
        "meta_arg_of_pericenter": 82.7737,
        "meta_mean_anomaly": 277.3639,
        "meta_ephemeris_type": 0,
        "meta_classification_type": "U",
        "meta_norad_cat_id": 40053,
        "meta_element_set_no": 999,
        "meta_rev_at_epoch": 61160,
        "meta_bstar": 0.00014756755,
        "meta_mean_motion_dot": 6.74e-06,
        "meta_mean_motion_ddot": 0,
        "tle_line1": "1 40053U 14034A   25358.31829131  .00000674  00000+0  14757-3 0  9998",
        "tle_line2": "2 40053  98.0889  60.1264 0001536  82.7737 277.3639 14.60748124611602"
      },
      "geometry": {
        "type": "Point",
        "coordinates": [
          47.30587686809126,
          58.526610339099804
        ]
      }
    },
    {
      "type": "Feature",
      "properties": {
        "norad_id": 40072,
        "name": "SKYSAT-B",
        "group": "resource",
        "lat": 78.66015590925595,
        "lon": -103.88370540039625,
        "alt_km": 594.8402113802667,
        "timestamp": "2025-12-24T22:42:21.679260+00:00",
        "meta_object_name": "SKYSAT-B",
        "meta_object_id": "2014-037D",
        "meta_epoch": "2025-12-23T09:12:08.448768",
        "meta_mean_motion": 14.8736338,
        "meta_eccentricity": 0.00067806,
        "meta_inclination": 98.3626,
        "meta_ra_of_asc_node": 301.6522,
        "meta_arg_of_pericenter": 120.3207,
        "meta_mean_anomaly": 239.8679,
        "meta_ephemeris_type": 0,
        "meta_classification_type": "U",
        "meta_norad_cat_id": 40072,
        "meta_element_set_no": 999,
        "meta_rev_at_epoch": 61982,
        "meta_bstar": 0.00018052931,
        "meta_mean_motion_dot": 1.571e-05,
        "meta_mean_motion_ddot": 0,
        "tle_line1": "1 40072U 14037D   25357.38343112  .00001571  00000+0  18053-3 0  9998",
        "tle_line2": "2 40072  98.3626 301.6522 0006780 120.3207 239.8679 14.87363380619827"
      },
      "geometry": {
        "type": "Point",
        "coordinates": [
          -103.88370540039625,
          78.66015590925595
        ]
      }
    },
    {
      "type": "Feature",
      "properties": {
        "norad_id": 40115,
        "name": "WORLDVIEW-3 (WV-3)",
        "group": "resource",
        "lat": -50.18203390577918,
        "lon": -118.48113235348387,
        "alt_km": 621.8352560525682,
        "timestamp": "2025-12-24T22:42:21.679270+00:00",
        "meta_object_name": "WORLDVIEW-3 (WV-3)",
        "meta_object_id": "2014-048A",
        "meta_epoch": "2025-12-24T05:29:41.522784",
        "meta_mean_motion": 14.84673229,
        "meta_eccentricity": 0.00020021,
        "meta_inclination": 97.8765,
        "meta_ra_of_asc_node": 70.3687,
        "meta_arg_of_pericenter": 130.4609,
        "meta_mean_anomaly": 229.6781,
        "meta_ephemeris_type": 0,
        "meta_classification_type": "U",
        "meta_norad_cat_id": 40115,
        "meta_element_set_no": 999,
        "meta_rev_at_epoch": 61594,
        "meta_bstar": 0.00012929953,
        "meta_mean_motion_dot": 1.041e-05,
        "meta_mean_motion_ddot": 0,
        "tle_line1": "1 40115U 14048A   25358.22895281  .00001041  00000+0  12930-3 0  9991",
        "tle_line2": "2 40115  97.8765  70.3687 0002002 130.4609 229.6781 14.84673229615949"
      },
      "geometry": {
        "type": "Point",
        "coordinates": [
          -118.48113235348387,
          -50.18203390577918
        ]
      }
    }
  ]
}